{
  "type": "FeatureCollection",
  "features": [
    {
      "type": "Feature",
      "properties": {
        "norad_id": 41825,
        "name": "FENGYUN 1C DEB",
        "group": "fengyun-1c-debris",
        "lat": 42.43253689130719,
        "lon": 41.660254894850326,
        "alt_km": 842.7826672824312,
        "timestamp": "2025-12-06T16:45:43.012510+00:00",
        "meta_object_name": "FENGYUN 1C DEB",
        "meta_object_id": "1999-025EYC",
        "meta_epoch": "2025-12-03T04:18:00.149760",
        "meta_mean_motion": 14.24970955,
        "meta_eccentricity": 0.00543125,
        "meta_inclination": 98.7429,
        "meta_ra_of_asc_node": 46.2424,
        "meta_arg_of_pericenter": 247.2858,
        "meta_mean_anomaly": 112.2575,
        "meta_ephemeris_type": 0,
        "meta_classification_type": "U",
        "meta_norad_cat_id": 41825,
        "meta_element_set_no": 999,
        "meta_rev_at_epoch": 47212,
        "meta_bstar": 0.0026848225,
        "meta_mean_motion_dot": 6.338e-05,
        "meta_mean_motion_ddot": 0,
        "tle_line1": "1 41825U 99025EYC 25337.17916840  .00006338  00000+0  26848-2 0  9990",
        "tle_line2": "2 41825  98.7429  46.2424 0054312 247.2858 112.2575 14.24970955472129"
      },
      "geometry": {
        "type": "Point",
        "coordinates": [
          41.660254894850326,
          42.43253689130719
        ]
      }
    },
    {
      "type": "Feature",
      "properties": {
        "norad_id": 41826,
        "name": "FENGYUN 1C DEB",
        "group": "fengyun-1c-debris",
        "lat": 43.396873980072016,
        "lon": 38.17675649878799,
        "alt_km": 847.2133179914863,
        "timestamp": "2025-12-06T16:45:43.012521+00:00",
        "meta_object_name": "FENGYUN 1C DEB",
        "meta_object_id": "1999-025EYD",
        "meta_epoch": "2025-12-04T15:38:19.862592",
        "meta_mean_motion": 14.23663434,
        "meta_eccentricity": 0.0055166,
        "meta_inclination": 98.7346,
        "meta_ra_of_asc_node": 44.5031,
        "meta_arg_of_pericenter": 246.686,
        "meta_mean_anomaly": 112.8507,
        "meta_ephemeris_type": 0,
        "meta_classification_type": "U",
        "meta_norad_cat_id": 41826,
        "meta_element_set_no": 999,
        "meta_rev_at_epoch": 47245,
        "meta_bstar": 0.0031602,
        "meta_mean_motion_dot": 7.285e-05,
        "meta_mean_motion_ddot": 0,
        "tle_line1": "1 41826U 99025EYD 25338.65161878  .00007285  00000+0  31602-2 0  9994",
        "tle_line2": "2 41826  98.7346  44.5031 0055166 246.6860 112.8507 14.23663434472454"
      },
      "geometry": {
        "type": "Point",
        "coordinates": [
          38.17675649878799,
          43.396873980072016
        ]
      }
    },
    {
      "type": "Feature",
      "properties": {
        "norad_id": 41827,
        "name": "FENGYUN 1C DEB",
        "group": "fengyun-1c-debris",
        "lat": -80.59030196934866,
        "lon": 161.70017996092656,
        "alt_km": 781.3644240120748,
        "timestamp": "2025-12-06T16:45:43.012531+00:00",
        "meta_object_name": "FENGYUN 1C DEB",
        "meta_object_id": "1999-025EYE",
        "meta_epoch": "2025-12-06T03:43:11.822880",
        "meta_mean_motion": 14.25193545,
        "meta_eccentricity": 0.00578344,
        "meta_inclination": 98.7436,
        "meta_ra_of_asc_node": 49.3844,
        "meta_arg_of_pericenter": 232.2568,
        "meta_mean_anomaly": 127.3362,
        "meta_ephemeris_type": 0,
        "meta_classification_type": "U",
        "meta_norad_cat_id": 41827,
        "meta_element_set_no": 999,
        "meta_rev_at_epoch": 47237,
        "meta_bstar": 0.0028087463,
        "meta_mean_motion_dot": 6.676e-05,
        "meta_mean_motion_ddot": 0,
        "tle_line1": "1 41827U 99025EYE 25340.15499795  .00006676  00000+0  28087-2 0  9991",
        "tle_line2": "2 41827  98.7436  49.3844 0057834 232.2568 127.3362 14.25193545472374"
      },
      "geometry": {
        "type": "Point",
        "coordinates": [
          161.70017996092656,
          -80.59030196934866
        ]
      }
    },
    {
      "type": "Feature",
      "properties": {
        "norad_id": 41828,
        "name": "FENGYUN 1C DEB",
        "group": "fengyun-1c-debris",
        "lat": -48.975045011351575,
        "lon": 118.7767417590239,
        "alt_km": 740.9886451413768,
        "timestamp": "2025-12-06T16:45:43.012541+00:00",
        "meta_object_name": "FENGYUN 1C DEB",
        "meta_object_id": "1999-025EYF",
        "meta_epoch": "2025-12-05T21:08:11.870880",
        "meta_mean_motion": 14.51282304,
        "meta_eccentricity": 0.0039685,
        "meta_inclination": 98.9224,
        "meta_ra_of_asc_node": 107.507,
        "meta_arg_of_pericenter": 195.4027,
        "meta_mean_anomaly": 164.5961,
        "meta_ephemeris_type": 0,
        "meta_classification_type": "U",
        "meta_norad_cat_id": 41828,
        "meta_element_set_no": 999,
        "meta_rev_at_epoch": 47364,
        "meta_bstar": 0.0074190072,
        "meta_mean_motion_dot": 0.00029899,
        "meta_mean_motion_ddot": 0,
        "tle_line1": "1 41828U 99025EYF 25339.88069295  .00029899  00000+0  74190-2 0  9996",
        "tle_line2": "2 41828  98.9224 107.5070 0039685 195.4027 164.5961 14.51282304473644"
      },
      "geometry": {
        "type": "Point",
        "coordinates": [
          118.7767417590239,
          -48.975045011351575
        ]
      }
    },
    {
      "type": "Feature",
      "properties": {
        "norad_id": 41829,
        "name": "FENGYUN 1C DEB",
        "group": "fengyun-1c-debris",
        "lat": 55.12166172229321,
        "lon": 37.17565170954364,
        "alt_km": 843.3292667730766,
        "timestamp": "2025-12-06T16:45:43.012551+00:00",
        "meta_object_name": "FENGYUN 1C DEB",
        "meta_object_id": "1999-025EYG",
        "meta_epoch": "2025-12-06T03:00:58.544640",
        "meta_mean_motion": 14.25049328,
        "meta_eccentricity": 0.00560738,
        "meta_inclination": 98.745,
        "meta_ra_of_asc_node": 49.3624,
        "meta_arg_of_pericenter": 237.9836,
        "meta_mean_anomaly": 121.5888,
        "meta_ephemeris_type": 0,
        "meta_classification_type": "U",
        "meta_norad_cat_id": 41829,
        "meta_element_set_no": 999,
        "meta_rev_at_epoch": 47213,
        "meta_bstar": 0.0026269455,
        "meta_mean_motion_dot": 6.216e-05,
        "meta_mean_motion_ddot": 0,
        "tle_line1": "1 41829U 99025EYG 25340.12567760  .00006216  00000+0  26269-2 0  9998",
        "tle_line2": "2 41829  98.7450  49.3624 0056073 237.9836 121.5888 14.25049328472134"
      },
      "geometry": {
        "type": "Point",
        "coordinates": [
          37.17565170954364,
          55.12166172229321
        ]
      }
    },
    {
      "type": "Feature",
      "properties": {
        "norad_id": 41830,
        "name": "FENGYUN 1C DEB",
        "group": "fengyun-1c-debris",
        "lat": -26.193167139930917,
        "lon": -131.66507675390335,
        "alt_km": 775.063954827715,
        "timestamp": "2025-12-06T16:45:43.012561+00:00",
        "meta_object_name": "FENGYUN 1C DEB",
        "meta_object_id": "1999-025EYH",
        "meta_epoch": "2025-12-03T00:14:47.938848",
        "meta_mean_motion": 14.2631278,
        "meta_eccentricity": 0.00539917,
        "meta_inclination": 98.7543,
        "meta_ra_of_asc_node": 48.9961,
        "meta_arg_of_pericenter": 244.4093,
        "meta_mean_anomaly": 115.1501,
        "meta_ephemeris_type": 0,
        "meta_classification_type": "U",
        "meta_norad_cat_id": 41830,
        "meta_element_set_no": 999,
        "meta_rev_at_epoch": 47135,
        "meta_bstar": 0.0023798513,
        "meta_mean_motion_dot": 5.761e-05,
        "meta_mean_motion_ddot": 0,
        "tle_line1": "1 41830U 99025EYH 25337.01027707  .00005761  00000+0  23799-2 0  9995",
        "tle_line2": "2 41830  98.7543  48.9961 0053991 244.4093 115.1501 14.26312780471352"
      },
      "geometry": {
        "type": "Point",
        "coordinates": [
          -131.66507675390335,
          -26.193167139930917
        ]
      }
    },
    {
      "type": "Feature",
      "properties": {
        "norad_id": 41831,
        "name": "FENGYUN 1C DEB",
        "group": "fengyun-1c-debris",
        "lat": 71.45822120373775,
        "lon": 20.303878944549243,
        "alt_km": 841.9369890166208,
        "timestamp": "2025-12-06T16:45:43.012572+00:00",
        "meta_object_name": "FENGYUN 1C DEB",
        "meta_object_id": "1999-025EYJ",
        "meta_epoch": "2025-12-05T03:19:39.166464",
        "meta_mean_motion": 14.24480137,
        "meta_eccentricity": 0.00558206,
        "meta_inclination": 98.7353,
        "meta_ra_of_asc_node": 46.037,
        "meta_arg_of_pericenter": 242.9288,
        "meta_mean_anomaly": 116.6188,
        "meta_ephemeris_type": 0,
        "meta_classification_type": "U",
        "meta_norad_cat_id": 41831,
        "meta_element_set_no": 999,
        "meta_rev_at_epoch": 47151,
        "meta_bstar": 0.0035324752,
        "meta_mean_motion_dot": 8.283e-05,
        "meta_mean_motion_ddot": 0,
        "tle_line1": "1 41831U 99025EYJ 25339.13864776  .00008283  00000+0  35325-2 0  9996",
        "tle_line2": "2 41831  98.7353  46.0370 0055820 242.9288 116.6188 14.24480137471512"
      },
      "geometry": {
        "type": "Point",
        "coordinates": [
          20.303878944549243,
          71.45822120373775
        ]
      }
    }
  ]
}